QIANFAN-65              
1 62795U 25016L   25290.14525404  .00000079  00000+0  10283-3 0  9998
2 62795  88.9723 108.9148 0014929 141.4012 218.8209 13.50972232 39609
QIANFAN-66              
1 62796U 25016M   25284.76742828  .00000126  00000+0  17597-3 0  9999
2 62796  88.9747 109.4302 0015725 152.1511 208.0485 13.50966984 38920
QIANFAN-67              
1 62797U 25016N   25290.17815706  .00000097  00000+0  13190-3 0  9990
2 62797  88.9733 108.9016 0015949 144.0038 216.2191 13.50969088 39625
QIANFAN-68              
1 62798U 25016P   25290.16995149  .00000086  00000+0  11501-3 0  9992
2 62798  88.9736 108.9456 0016052 142.3907 217.8370 13.50971405 39609
QIANFAN-69              
1 62799U 25016Q   25290.18644756  .00000097  00000+0  13085-3 0  9991
2 62799  88.9715 108.8254 0016765 143.5817 216.6478 13.50968886 39645
QIANFAN-70              
1 62800U 25016R   25290.20276642  .00000104  00000+0  14275-3 0  9993
2 62800  88.9737 108.9502 0016591 134.4166 225.8346 13.50971263 39607
QIANFAN-71              
1 62801U 25016S   25290.19874602  .00000092  00000+0  12357-3 0  9997
2 62801  88.9729 108.9336 0016606 146.8463 213.3732 13.50972567 39607
QIANFAN-72              
1 62802U 25016T   25274.29087208  .00000084  00000+0  11481-3 0  9997
2 62802  88.9730 110.6012 0018440 200.3911 159.6505 13.49486897 37447
